CCSDS_OMM_VERS = 2.0
CREATION_DATE  = 
ORIGINATOR     = 

OBJECT_NAME    = STARLINK-36627
OBJECT_ID      = 2026-020U
CENTER_NAME    = EARTH
REF_FRAME      = TEME
TIME_SYSTEM    = UTC
MEAN_ELEMENT_THEORY = SGP/SGP4

EPOCH          = 2026-02-13T22:00:01.999584
MEAN_MOTION    = 15.76342913
ECCENTRICITY   = .00017075
INCLINATION    = 42.9986
RA_OF_ASC_NODE = 286.4889
ARG_OF_PERICENTER = 275.1653
MEAN_ANOMALY   = 168.3016

EPHEMERIS_TYPE = 0
CLASSIFICATION_TYPE = U
NORAD_CAT_ID   = 67635
ELEMENT_SET_NO = 999
REV_AT_EPOCH   = 357
BSTAR          = .24893861E-3
MEAN_MOTION_DOT = .402E-3
MEAN_MOTION_DDOT = 0

CCSDS_OMM_VERS = 2.0
CREATION_DATE  = 
ORIGINATOR     = 

OBJECT_NAME    = STARLINK-36624
OBJECT_ID      = 2026-020V
CENTER_NAME    = EARTH
REF_FRAME      = TEME
TIME_SYSTEM    = UTC
MEAN_ELEMENT_THEORY = SGP/SGP4

EPOCH          = 2026-02-13T16:56:12.600096
MEAN_MOTION    = 15.82248089
ECCENTRICITY   = .00023515
INCLINATION    = 42.9981
RA_OF_ASC_NODE = 287.6800
ARG_OF_PERICENTER = 273.2346
MEAN_ANOMALY   = 86.8257

EPHEMERIS_TYPE = 0
CLASSIFICATION_TYPE = U
NORAD_CAT_ID   = 67636
ELEMENT_SET_NO = 999
REV_AT_EPOCH   = 230
BSTAR          = .20472432E-2
MEAN_MOTION_DOT = .459155E-2
MEAN_MOTION_DDOT = 0

CCSDS_OMM_VERS = 2.0
CREATION_DATE  = 
ORIGINATOR     = 

OBJECT_NAME    = STARLINK-36610
OBJECT_ID      = 2026-020W
CENTER_NAME    = EARTH
REF_FRAME      = TEME
TIME_SYSTEM    = UTC
MEAN_ELEMENT_THEORY = SGP/SGP4

EPOCH          = 2026-02-13T22:00:01.999584
MEAN_MOTION    = 15.76363674
ECCENTRICITY   = .00015393
INCLINATION    = 42.9984
RA_OF_ASC_NODE = 286.5204
ARG_OF_PERICENTER = 271.1471
MEAN_ANOMALY   = 159.8810

EPHEMERIS_TYPE = 0
CLASSIFICATION_TYPE = U
NORAD_CAT_ID   = 67637
ELEMENT_SET_NO = 999
REV_AT_EPOCH   = 357
BSTAR          = -.72356195E-4
MEAN_MOTION_DOT = -.12251E-3
MEAN_MOTION_DDOT = 0

CCSDS_OMM_VERS = 2.0
CREATION_DATE  = 
ORIGINATOR     = 

OBJECT_NAME    = STARLINK-36599
OBJECT_ID      = 2026-020X
CENTER_NAME    = EARTH
REF_FRAME      = TEME
TIME_SYSTEM    = UTC
MEAN_ELEMENT_THEORY = SGP/SGP4

EPOCH          = 2026-02-13T16:52:55.014528
MEAN_MOTION    = 15.82357591
ECCENTRICITY   = .00029837
INCLINATION    = 42.9979
RA_OF_ASC_NODE = 287.6608
ARG_OF_PERICENTER = 259.6633
MEAN_ANOMALY   = 100.3903

EPHEMERIS_TYPE = 0
CLASSIFICATION_TYPE = U
NORAD_CAT_ID   = 67638
ELEMENT_SET_NO = 999
REV_AT_EPOCH   = 230
BSTAR          = .30791363E-2
MEAN_MOTION_DOT = .715592E-2
MEAN_MOTION_DDOT = 0

CCSDS_OMM_VERS = 2.0
CREATION_DATE  = 
ORIGINATOR     = 

OBJECT_NAME    = STARLINK-36595
OBJECT_ID      = 2026-020Y
CENTER_NAME    = EARTH
REF_FRAME      = TEME
TIME_SYSTEM    = UTC
MEAN_ELEMENT_THEORY = SGP/SGP4

EPOCH          = 2026-02-13T16:51:46.903680
MEAN_MOTION    = 15.82288354
ECCENTRICITY   = .00026199
INCLINATION    = 42.9977
RA_OF_ASC_NODE = 287.6533
ARG_OF_PERICENTER = 253.2473
MEAN_ANOMALY   = 106.8112

EPHEMERIS_TYPE = 0
CLASSIFICATION_TYPE = U
NORAD_CAT_ID   = 67639
ELEMENT_SET_NO = 999
REV_AT_EPOCH   = 230
BSTAR          = .24309238E-2
MEAN_MOTION_DOT = .552334E-2
MEAN_MOTION_DDOT = 0

CCSDS_OMM_VERS = 2.0
CREATION_DATE  = 
ORIGINATOR     = 

OBJECT_NAME    = STARLINK-36570
OBJECT_ID      = 2026-020Z
CENTER_NAME    = EARTH
REF_FRAME      = TEME
TIME_SYSTEM    = UTC
MEAN_ELEMENT_THEORY = SGP/SGP4

EPOCH          = 2026-02-13T22:00:01.999584
MEAN_MOTION    = 15.76364280
ECCENTRICITY   = .00017158
INCLINATION    = 42.9986
RA_OF_ASC_NODE = 286.4264
ARG_OF_PERICENTER = 257.8230
MEAN_ANOMALY   = 210.5292

EPHEMERIS_TYPE = 0
CLASSIFICATION_TYPE = U
NORAD_CAT_ID   = 67640
ELEMENT_SET_NO = 999
REV_AT_EPOCH   = 357
BSTAR          = -.81720178E-4
MEAN_MOTION_DOT = -.13772E-3
MEAN_MOTION_DDOT = 0

CCSDS_OMM_VERS = 2.0
CREATION_DATE  = 
ORIGINATOR     = 

OBJECT_NAME    = STARLINK-36514
OBJECT_ID      = 2026-020AA
CENTER_NAME    = EARTH
REF_FRAME      = TEME
TIME_SYSTEM    = UTC
MEAN_ELEMENT_THEORY = SGP/SGP4

EPOCH          = 2026-02-13T16:48:29.039040
MEAN_MOTION    = 15.82361054
ECCENTRICITY   = .00026023
INCLINATION    = 42.9976
RA_OF_ASC_NODE = 287.6347
ARG_OF_PERICENTER = 256.1734
MEAN_ANOMALY   = 103.8849

EPHEMERIS_TYPE = 0
CLASSIFICATION_TYPE = U
NORAD_CAT_ID   = 67641
ELEMENT_SET_NO = 999
REV_AT_EPOCH   = 230
BSTAR          = .31099359E-2
MEAN_MOTION_DOT = .723567E-2
MEAN_MOTION_DDOT = 0

CCSDS_OMM_VERS = 2.0
CREATION_DATE  = 
ORIGINATOR     = 

OBJECT_NAME    = STARLINK-36556
OBJECT_ID      = 2026-020AB
CENTER_NAME    = EARTH
REF_FRAME      = TEME
TIME_SYSTEM    = UTC
MEAN_ELEMENT_THEORY = SGP/SGP4

EPOCH          = 2026-02-13T16:47:33.848448
MEAN_MOTION    = 15.82372876
ECCENTRICITY   = .00031535
INCLINATION    = 42.9974
RA_OF_ASC_NODE = 287.6291
ARG_OF_PERICENTER = 239.0328
MEAN_ANOMALY   = 121.0234

EPHEMERIS_TYPE = 0
CLASSIFICATION_TYPE = U
NORAD_CAT_ID   = 67642
ELEMENT_SET_NO = 999
REV_AT_EPOCH   = 230
BSTAR          = .30895573E-2
MEAN_MOTION_DOT = .718793E-2
MEAN_MOTION_DDOT = 0

CCSDS_OMM_VERS = 2.0
CREATION_DATE  = 
ORIGINATOR     = 

OBJECT_NAME    = STARLINK-36533
OBJECT_ID      = 2026-020AC
CENTER_NAME    = EARTH
REF_FRAME      = TEME
TIME_SYSTEM    = UTC
MEAN_ELEMENT_THEORY = SGP/SGP4

EPOCH          = 2026-02-13T22:00:01.999584
MEAN_MOTION    = 15.76372650
ECCENTRICITY   = .00015983
INCLINATION    = 42.9983
RA_OF_ASC_NODE = 286.4567
ARG_OF_PERICENTER = 283.9534
MEAN_ANOMALY   = 171.9556

EPHEMERIS_TYPE = 0
CLASSIFICATION_TYPE = U
NORAD_CAT_ID   = 67643
ELEMENT_SET_NO = 999
REV_AT_EPOCH   = 357
BSTAR          = -.22517603E-3
MEAN_MOTION_DOT = -.37005E-3
MEAN_MOTION_DDOT = 0

CCSDS_OMM_VERS = 2.0
CREATION_DATE  = 
ORIGINATOR     = 

OBJECT_NAME    = STARLINK-36623
OBJECT_ID      = 2026-020AD
CENTER_NAME    = EARTH
REF_FRAME      = TEME
TIME_SYSTEM    = UTC
MEAN_ELEMENT_THEORY = SGP/SGP4

EPOCH          = 2026-02-13T22:00:01.999584
MEAN_MOTION    = 15.76370529
ECCENTRICITY   = .00015636
INCLINATION    = 42.9986
RA_OF_ASC_NODE = 286.3624
ARG_OF_PERICENTER = 270.7097
MEAN_ANOMALY   = 222.5201

EPHEMERIS_TYPE = 0
CLASSIFICATION_TYPE = U
NORAD_CAT_ID   = 67644
ELEMENT_SET_NO = 999
REV_AT_EPOCH   = 357
BSTAR          = -.17349048E-3
MEAN_MOTION_DOT = -.28648E-3
MEAN_MOTION_DDOT = 0

CCSDS_OMM_VERS = 2.0
CREATION_DATE  = 
ORIGINATOR     = 

OBJECT_NAME    = STARLINK-36619
OBJECT_ID      = 2026-020AE
CENTER_NAME    = EARTH
REF_FRAME      = TEME
TIME_SYSTEM    = UTC
MEAN_ELEMENT_THEORY = SGP/SGP4

EPOCH          = 2026-02-13T22:00:01.999584
MEAN_MOTION    = 15.76335615
ECCENTRICITY   = .00015853
INCLINATION    = 42.9985
RA_OF_ASC_NODE = 286.3308
ARG_OF_PERICENTER = 274.3522
MEAN_ANOMALY   = 231.3305

EPHEMERIS_TYPE = 0
CLASSIFICATION_TYPE = U
NORAD_CAT_ID   = 67645
ELEMENT_SET_NO = 999
REV_AT_EPOCH   = 357
BSTAR          = .218551E-3
MEAN_MOTION_DOT = .35201E-3
MEAN_MOTION_DDOT = 0

CCSDS_OMM_VERS = 2.0
CREATION_DATE  = 
ORIGINATOR     = 

OBJECT_NAME    = ALSAT-3B
OBJECT_ID      = 2026-021A
CENTER_NAME    = EARTH
REF_FRAME      = TEME
TIME_SYSTEM    = UTC
MEAN_ELEMENT_THEORY = SGP/SGP4

EPOCH          = 2026-02-13T19:22:43.165056
MEAN_MOTION    = 15.23581399
ECCENTRICITY   = .00119233
INCLINATION    = 97.4720
RA_OF_ASC_NODE = 119.2469
ARG_OF_PERICENTER = 213.8531
MEAN_ANOMALY   = 146.1946

EPHEMERIS_TYPE = 0
CLASSIFICATION_TYPE = U
NORAD_CAT_ID   = 67646
ELEMENT_SET_NO = 999
REV_AT_EPOCH   = 208
BSTAR          = .29389266E-3
MEAN_MOTION_DOT = .6973E-4
MEAN_MOTION_DDOT = 0

CCSDS_OMM_VERS = 2.0
CREATION_DATE  = 
ORIGINATOR     = 

OBJECT_NAME    = CZ-2C R/B
OBJECT_ID      = 2026-021B
CENTER_NAME    = EARTH
REF_FRAME      = TEME
TIME_SYSTEM    = UTC
MEAN_ELEMENT_THEORY = SGP/SGP4

EPOCH          = 2026-02-13T19:26:50.887680
MEAN_MOTION    = 15.23430120
ECCENTRICITY   = .01537241
INCLINATION    = 97.6562
RA_OF_ASC_NODE = 119.7982
ARG_OF_PERICENTER = 94.2062
MEAN_ANOMALY   = 267.6758

EPHEMERIS_TYPE = 0
CLASSIFICATION_TYPE = U
NORAD_CAT_ID   = 67647
ELEMENT_SET_NO = 999
REV_AT_EPOCH   = 206
BSTAR          = .37362992E-3
MEAN_MOTION_DOT = .12352E-3
MEAN_MOTION_DDOT = 0

CCSDS_OMM_VERS = 2.0
CREATION_DATE  = 
ORIGINATOR     = 

OBJECT_NAME    = STARLINK-36719
OBJECT_ID      = 2026-022A
CENTER_NAME    = EARTH
REF_FRAME      = TEME
TIME_SYSTEM    = UTC
MEAN_ELEMENT_THEORY = SGP/SGP4

EPOCH          = 2026-02-13T22:00:01.999584
MEAN_MOTION    = 15.80809130
ECCENTRICITY   = .00009588
INCLINATION    = 97.2824
RA_OF_ASC_NODE = 77.7016
ARG_OF_PERICENTER = 90.0566
MEAN_ANOMALY   = 323.7492

EPHEMERIS_TYPE = 0
CLASSIFICATION_TYPE = U
NORAD_CAT_ID   = 67648
ELEMENT_SET_NO = 999
REV_AT_EPOCH   = 307
BSTAR          = -.21122139E-3
MEAN_MOTION_DOT = -.404E-3
MEAN_MOTION_DDOT = 0

CCSDS_OMM_VERS = 2.0
CREATION_DATE  = 
ORIGINATOR     = 

OBJECT_NAME    = STARLINK-36342
OBJECT_ID      = 2026-022B
CENTER_NAME    = EARTH
REF_FRAME      = TEME
TIME_SYSTEM    = UTC
MEAN_ELEMENT_THEORY = SGP/SGP4

EPOCH          = 2026-02-13T22:00:01.999584
MEAN_MOTION    = 15.80818839
ECCENTRICITY   = .00018974
INCLINATION    = 97.2821
RA_OF_ASC_NODE = 77.7029
ARG_OF_PERICENTER = 85.9579
MEAN_ANOMALY   = 332.1679

EPHEMERIS_TYPE = 0
CLASSIFICATION_TYPE = U
NORAD_CAT_ID   = 67649
ELEMENT_SET_NO = 999
REV_AT_EPOCH   = 307
BSTAR          = -.39199611E-3
MEAN_MOTION_DOT = -.74606E-3
MEAN_MOTION_DDOT = 0

